CCSDS_OMM_VERS = 2.0
CREATION_DATE  = 
ORIGINATOR     = 

OBJECT_NAME    = KUIPER-00220
OBJECT_ID      = 2026-030T
CENTER_NAME    = EARTH
REF_FRAME      = TEME
TIME_SYSTEM    = UTC
MEAN_ELEMENT_THEORY = SGP/SGP4

EPOCH          = 2026-02-28T22:06:20.435040
MEAN_MOTION    = 15.34333178
ECCENTRICITY   = .00081534
INCLINATION    = 51.8803
RA_OF_ASC_NODE = 261.5447
ARG_OF_PERICENTER = 32.5750
MEAN_ANOMALY   = 327.5737

EPHEMERIS_TYPE = 0
CLASSIFICATION_TYPE = U
NORAD_CAT_ID   = 67781
ELEMENT_SET_NO = 999
REV_AT_EPOCH   = 374
BSTAR          = .8365832E-3
MEAN_MOTION_DOT = .27984E-3
MEAN_MOTION_DDOT = 0

CCSDS_OMM_VERS = 2.0
CREATION_DATE  = 
ORIGINATOR     = 

OBJECT_NAME    = KUIPER-00222
OBJECT_ID      = 2026-030U
CENTER_NAME    = EARTH
REF_FRAME      = TEME
TIME_SYSTEM    = UTC
MEAN_ELEMENT_THEORY = SGP/SGP4

EPOCH          = 2026-02-28T22:29:37.479840
MEAN_MOTION    = 15.32396489
ECCENTRICITY   = .0017586
INCLINATION    = 51.8807
RA_OF_ASC_NODE = 261.6461
ARG_OF_PERICENTER = 36.6405
MEAN_ANOMALY   = 323.5778

EPHEMERIS_TYPE = 0
CLASSIFICATION_TYPE = U
NORAD_CAT_ID   = 67782
ELEMENT_SET_NO = 999
REV_AT_EPOCH   = 374
BSTAR          = .62216749E-3
MEAN_MOTION_DOT = .19517E-3
MEAN_MOTION_DDOT = 0

CCSDS_OMM_VERS = 2.0
CREATION_DATE  = 
ORIGINATOR     = 

OBJECT_NAME    = KUIPER-00223
OBJECT_ID      = 2026-030V
CENTER_NAME    = EARTH
REF_FRAME      = TEME
TIME_SYSTEM    = UTC
MEAN_ELEMENT_THEORY = SGP/SGP4

EPOCH          = 2026-02-28T22:13:58.448352
MEAN_MOTION    = 15.33829629
ECCENTRICITY   = .00121882
INCLINATION    = 51.8819
RA_OF_ASC_NODE = 261.5818
ARG_OF_PERICENTER = 35.4338
MEAN_ANOMALY   = 324.7454

EPHEMERIS_TYPE = 0
CLASSIFICATION_TYPE = U
NORAD_CAT_ID   = 67783
ELEMENT_SET_NO = 999
REV_AT_EPOCH   = 374
BSTAR          = .6380928E-3
MEAN_MOTION_DOT = .20918E-3
MEAN_MOTION_DDOT = 0

CCSDS_OMM_VERS = 2.0
CREATION_DATE  = 
ORIGINATOR     = 

OBJECT_NAME    = KUIPER-00225
OBJECT_ID      = 2026-030W
CENTER_NAME    = EARTH
REF_FRAME      = TEME
TIME_SYSTEM    = UTC
MEAN_ELEMENT_THEORY = SGP/SGP4

EPOCH          = 2026-02-28T21:49:28.326432
MEAN_MOTION    = 15.35462321
ECCENTRICITY   = .00036041
INCLINATION    = 51.8796
RA_OF_ASC_NODE = 261.4696
ARG_OF_PERICENTER = 19.7345
MEAN_ANOMALY   = 340.3780

EPHEMERIS_TYPE = 0
CLASSIFICATION_TYPE = U
NORAD_CAT_ID   = 67784
ELEMENT_SET_NO = 999
REV_AT_EPOCH   = 374
BSTAR          = .68891315E-3
MEAN_MOTION_DOT = .23798E-3
MEAN_MOTION_DDOT = 0

CCSDS_OMM_VERS = 2.0
CREATION_DATE  = 
ORIGINATOR     = 

OBJECT_NAME    = KUIPER-00226
OBJECT_ID      = 2026-030X
CENTER_NAME    = EARTH
REF_FRAME      = TEME
TIME_SYSTEM    = UTC
MEAN_ELEMENT_THEORY = SGP/SGP4

EPOCH          = 2026-02-28T22:41:36.986208
MEAN_MOTION    = 15.31416355
ECCENTRICITY   = .00199177
INCLINATION    = 51.8823
RA_OF_ASC_NODE = 261.7001
ARG_OF_PERICENTER = 46.6649
MEAN_ANOMALY   = 313.5992

EPHEMERIS_TYPE = 0
CLASSIFICATION_TYPE = U
NORAD_CAT_ID   = 67785
ELEMENT_SET_NO = 999
REV_AT_EPOCH   = 374
BSTAR          = .58077771E-3
MEAN_MOTION_DOT = .17654E-3
MEAN_MOTION_DDOT = 0

CCSDS_OMM_VERS = 2.0
CREATION_DATE  = 
ORIGINATOR     = 

OBJECT_NAME    = KUIPER-00259
OBJECT_ID      = 2026-030Y
CENTER_NAME    = EARTH
REF_FRAME      = TEME
TIME_SYSTEM    = UTC
MEAN_ELEMENT_THEORY = SGP/SGP4

EPOCH          = 2026-02-28T22:01:49.822464
MEAN_MOTION    = 15.34652561
ECCENTRICITY   = .00080621
INCLINATION    = 51.8801
RA_OF_ASC_NODE = 261.5245
ARG_OF_PERICENTER = 25.7634
MEAN_ANOMALY   = 334.3752

EPHEMERIS_TYPE = 0
CLASSIFICATION_TYPE = U
NORAD_CAT_ID   = 67786
ELEMENT_SET_NO = 999
REV_AT_EPOCH   = 374
BSTAR          = .81134244E-3
MEAN_MOTION_DOT = .27405E-3
MEAN_MOTION_DDOT = 0

CCSDS_OMM_VERS = 2.0
CREATION_DATE  = 
ORIGINATOR     = 

OBJECT_NAME    = KUIPER-00260
OBJECT_ID      = 2026-030Z
CENTER_NAME    = EARTH
REF_FRAME      = TEME
TIME_SYSTEM    = UTC
MEAN_ELEMENT_THEORY = SGP/SGP4

EPOCH          = 2026-02-28T23:14:28.735296
MEAN_MOTION    = 15.36019385
ECCENTRICITY   = .00008732
INCLINATION    = 51.8789
RA_OF_ASC_NODE = 261.1160
ARG_OF_PERICENTER = 82.4218
MEAN_ANOMALY   = 277.6868

EPHEMERIS_TYPE = 0
CLASSIFICATION_TYPE = U
NORAD_CAT_ID   = 67787
ELEMENT_SET_NO = 999
REV_AT_EPOCH   = 366
BSTAR          = .88677023E-3
MEAN_MOTION_DOT = .31329E-3
MEAN_MOTION_DDOT = 0

CCSDS_OMM_VERS = 2.0
CREATION_DATE  = 
ORIGINATOR     = 

OBJECT_NAME    = KUIPER-00262
OBJECT_ID      = 2026-030AA
CENTER_NAME    = EARTH
REF_FRAME      = TEME
TIME_SYSTEM    = UTC
MEAN_ELEMENT_THEORY = SGP/SGP4

EPOCH          = 2026-02-28T23:10:42.607488
MEAN_MOTION    = 15.36329455
ECCENTRICITY   = .00009445
INCLINATION    = 51.8806
RA_OF_ASC_NODE = 261.1015
ARG_OF_PERICENTER = 140.3756
MEAN_ANOMALY   = 219.7299

EPHEMERIS_TYPE = 0
CLASSIFICATION_TYPE = U
NORAD_CAT_ID   = 67788
ELEMENT_SET_NO = 999
REV_AT_EPOCH   = 375
BSTAR          = .95024728E-3
MEAN_MOTION_DOT = .3395E-3
MEAN_MOTION_DDOT = 0

CCSDS_OMM_VERS = 2.0
CREATION_DATE  = 
ORIGINATOR     = 

OBJECT_NAME    = KUIPER-00266
OBJECT_ID      = 2026-030AB
CENTER_NAME    = EARTH
REF_FRAME      = TEME
TIME_SYSTEM    = UTC
MEAN_ELEMENT_THEORY = SGP/SGP4

EPOCH          = 2026-02-28T22:46:36.706080
MEAN_MOTION    = 15.31011487
ECCENTRICITY   = .00225213
INCLINATION    = 51.8814
RA_OF_ASC_NODE = 261.7202
ARG_OF_PERICENTER = 46.6938
MEAN_ANOMALY   = 313.5920

EPHEMERIS_TYPE = 0
CLASSIFICATION_TYPE = U
NORAD_CAT_ID   = 67789
ELEMENT_SET_NO = 999
REV_AT_EPOCH   = 374
BSTAR          = .1058443E-3
MEAN_MOTION_DOT = .2865E-4
MEAN_MOTION_DDOT = 0

CCSDS_OMM_VERS = 2.0
CREATION_DATE  = 
ORIGINATOR     = 

OBJECT_NAME    = KUIPER-00268
OBJECT_ID      = 2026-030AC
CENTER_NAME    = EARTH
REF_FRAME      = TEME
TIME_SYSTEM    = UTC
MEAN_ELEMENT_THEORY = SGP/SGP4

EPOCH          = 2026-02-28T23:20:00.105216
MEAN_MOTION    = 15.35598716
ECCENTRICITY   = .0001866
INCLINATION    = 51.8831
RA_OF_ASC_NODE = 261.1472
ARG_OF_PERICENTER = 27.2388
MEAN_ANOMALY   = 332.8696

EPHEMERIS_TYPE = 0
CLASSIFICATION_TYPE = U
NORAD_CAT_ID   = 67790
ELEMENT_SET_NO = 999
REV_AT_EPOCH   = 375
BSTAR          = -.1189275E-3
MEAN_MOTION_DOT = -.456E-4
MEAN_MOTION_DDOT = 0

CCSDS_OMM_VERS = 2.0
CREATION_DATE  = 
ORIGINATOR     = 

OBJECT_NAME    = KUIPER-00270
OBJECT_ID      = 2026-030AD
CENTER_NAME    = EARTH
REF_FRAME      = TEME
TIME_SYSTEM    = UTC
MEAN_ELEMENT_THEORY = SGP/SGP4

EPOCH          = 2026-02-28T22:07:50.674656
MEAN_MOTION    = 15.34237517
ECCENTRICITY   = .00100431
INCLINATION    = 51.8803
RA_OF_ASC_NODE = 261.5511
ARG_OF_PERICENTER = 31.9248
MEAN_ANOMALY   = 328.2344

EPHEMERIS_TYPE = 0
CLASSIFICATION_TYPE = U
NORAD_CAT_ID   = 67791
ELEMENT_SET_NO = 999
REV_AT_EPOCH   = 374
BSTAR          = .81336092E-3
MEAN_MOTION_DOT = .27124E-3
MEAN_MOTION_DDOT = 0

CCSDS_OMM_VERS = 2.0
CREATION_DATE  = 
ORIGINATOR     = 

OBJECT_NAME    = KUIPER-00274
OBJECT_ID      = 2026-030AE
CENTER_NAME    = EARTH
REF_FRAME      = TEME
TIME_SYSTEM    = UTC
MEAN_ELEMENT_THEORY = SGP/SGP4

EPOCH          = 2026-02-28T22:33:43.594560
MEAN_MOTION    = 15.31680681
ECCENTRICITY   = .0017295
INCLINATION    = 51.8832
RA_OF_ASC_NODE = 261.6699
ARG_OF_PERICENTER = 43.3327
MEAN_ANOMALY   = 316.9014

EPHEMERIS_TYPE = 0
CLASSIFICATION_TYPE = U
NORAD_CAT_ID   = 67792
ELEMENT_SET_NO = 999
REV_AT_EPOCH   = 374
BSTAR          = .10020444E-2
MEAN_MOTION_DOT = .31E-3
MEAN_MOTION_DDOT = 0

