KUIPER-00220            
1 67781U 26030T   26059.92106985  .00027984  00000+0  83658-3 0  9994
2 67781  51.8803 261.5447 0008153  32.5750 327.5737 15.34333178  3740
KUIPER-00222            
1 67782U 26030U   26059.93723935  .00019517  00000+0  62217-3 0  9997
2 67782  51.8807 261.6461 0017586  36.6405 323.5778 15.32396489  3747
KUIPER-00223            
1 67783U 26030V   26059.92637093  .00020918  00000+0  63809-3 0  9991
2 67783  51.8819 261.5818 0012188  35.4338 324.7454 15.33829629  3743
KUIPER-00225            
1 67784U 26030W   26059.90935563  .00023798  00000+0  68891-3 0  9998
2 67784  51.8796 261.4696 0003604  19.7345 340.3780 15.35462321  3747
KUIPER-00226            
1 67785U 26030X   26059.94556697  .00017654  00000+0  58078-3 0  9990
2 67785  51.8823 261.7001 0019917  46.6649 313.5992 15.31416355  3741
KUIPER-00259            
1 67786U 26030Y   26059.91793776  .00027405  00000+0  81134-3 0  9993
2 67786  51.8801 261.5245 0008062  25.7634 334.3752 15.34652561  3746
KUIPER-00260            
1 67787U 26030Z   26059.96838814  .00031329  00000+0  88677-3 0  9991
2 67787  51.8789 261.1160 0000873  82.4218 277.6868 15.36019385  3665
KUIPER-00262            
1 67788U 26030AA  26059.96577092  .00033950  00000+0  95025-3 0  9997
2 67788  51.8806 261.1015 0000944 140.3756 219.7299 15.36329455  3752
KUIPER-00266            
1 67789U 26030AB  26059.94903595  .00002865  00000+0  10584-3 0  9995
2 67789  51.8814 261.7202 0022521  46.6938 313.5920 15.31011487  3742
KUIPER-00268            
1 67790U 26030AC  26059.97222344 -.00004560  00000+0 -11893-3 0  9996
2 67790  51.8831 261.1472 0001866  27.2388 332.8696 15.35598716  3753
KUIPER-00270            
1 67791U 26030AD  26059.92211429  .00027124  00000+0  81336-3 0  9992
2 67791  51.8803 261.5511 0010043  31.9248 328.2344 15.34237517  3741
KUIPER-00274            
1 67792U 26030AE  26059.94008790  .00031000  00000+0  10020-2 0  9999
2 67792  51.8832 261.6699 0017295  43.3327 316.9014 15.31680681  3742
